"lat","lon","name","type","address"
-36.850109,174.765123,"McDonald's - Queen Street"," restaurant food establishment","260 Queen Street Auckland"
-36.849649,174.77364,"Copthorne Hotel Auckland City"," bar restaurant lodging food establishment","150 Anzac Ave Auckland"
-36.855447,174.760161,"Amora Hotel Auckland (Formerly Duxton)"," restaurant lodging food establishment","100 Greys Ave Auckland"
-36.852801,174.760639,"Rendezvous Hotel Auckland"," restaurant lodging food establishment","71 Mayoral Dr Auckland"
-36.845576,174.76495,"Stamford Plaza Auckland"," bar restaurant lodging food establishment","22-26 Albert Street Auckland"
-36.840269,174.765776,"Hilton Auckland Hotel"," bar restaurant lodging food establishment","21/147 Quay St Auckland"
-36.850226,174.763297,"BESOS LATINOS RESTAURANTE"," restaurant food establishment","39 Elliott Street Auckland"
-36.843044,174.76459,"Copthorne Hotel Auckland HarbourCity"," bar restaurant lodging food establishment","196-200 Quay St Auckland"
-36.865357,174.766822,"Red Elephant"," restaurant food establishment","195 Khyber Pass Road Newmarket"
-36.848542,174.759443,"Toto Pizza"," restaurant food establishment","53 Nelson Street Auckland"
-36.855812,174.76245,"Le Garde Manger"," bar restaurant food establishment","466 Queen St Auckland"
-36.852335,174.782747,"Cibo Parnell"," restaurant food establishment","Axis Building 91 St Georges Bay Road Parnell"
-36.84426,174.769855,"Ebisu"," restaurant food establishment","116-118 Quay Street Auckland"
-36.849005,174.762562,"Depot"," restaurant food establishment","86 Federal Street Auckland"
-36.840864,174.764918,"Y Not Restaurant & Bar"," restaurant food establishment","Princes Wharf Shed 23 145 Quay Street Auckland"
-36.845327,174.770271,"Mexico - Britomart"," restaurant food establishment","23 Britomart Pl Auckland"
-36.844809,174.768735,"The Britomart Country Club"," bar restaurant food establishment","31 Galway St Auckland"
-36.842979,174.763721,"Degree Gastrobar"," night_club restaurant food establishment","204 Quay St Auckland"
-36.842949,174.766699,"Botswana Butchery"," restaurant food establishment","99 Quay St Auckland"
-36.856011,174.780639,"Non Solo Pizza"," bar restaurant food establishment","259 Parnell Road Auckland"
-36.851693,174.744699,"Thai Me Up"," restaurant food establishment","244 Ponsonby Road Ponsonby"
-36.846379,174.733412,"Gables Speights Ale House"," restaurant food establishment","248 Jervois Road Herne Bay"
-36.857285,174.74801,"Bolliwood Ponsonby"," restaurant food establishment","110 Ponsonby Rd Auckland"
-36.843436,174.763189,"Soul Bar and Bistro"," bar restaurant food establishment","16-18 Corner of Lower Hobson Street and Customs Street West Auckland"
-36.853536,174.763128,"Kura Japanese Restaurant"," restaurant food establishment","315 Queen St Auckland"
-36.847706,174.764649,"The Bluestone Room - Bar Restaurant and Function Venue"," bar restaurant food establishment","9-11 Durham Ln Auckland"
-36.855039,174.746312," Auckland"," bar restaurant food establishment","147 Ponsonby Rd Ponsonby Auckland"
-36.847373,174.788074,"Chapel Bar & Bistro"," restaurant food establishment","1 Solent St Mechanics Bay Auckland"
-36.864478,174.76103,"Mikano Restaurant & Bar"," restaurant food establishment","210 Symonds Street Eden Terrace Auckland"
-36.843723,174.762568,"The French Cafe"," restaurant food establishment","104 Customs St W Viaduct"
-36.831922,174.796652,"Industry Zen"," bar restaurant lodging food establishment","1 Victoria Road Devonport Auckland"
-36.848144,174.763109,"The Esplanade Hotel"," restaurant food establishment","1/67 Victoria St W Auckland"
-36.87096,174.777848,"Mexican Cafe"," restaurant food establishment","15 Nuffield St Newmarket"
-36.850342,174.763097,"Mexicali Fresh Newmarket"," restaurant food establishment","31 Wellesley St W Auckland"
-36.858153,174.756693,"littlemexico"," night_club bar restaurant food establishment","376 Karangahape Road"
-36.848432,174.765966,"Coco's Cantina"," restaurant food establishment","9 Durham Street East Auckland"
-36.848293,174.763204,"Mezze Bar"," meal_takeaway restaurant food establishment","57 Victoria Street West Auckland"
-36.867938,174.776192,"Mai Thai"," cafe bar restaurant food establishment","8 Kent Street Newmarket Auckland"
-36.853596,174.783887,"Lone Star"," restaurant food establishment","69 St Georges Bay Road Parnell"
-36.850259,174.763632,"La Cigale"," cafe bar restaurant food establishment","39 Elliott St Auckland Auckland NZ"
-36.839001,174.74333,"El Faro Spanish restaurant & Tapas Bar"," restaurant food establishment","103-113 Westhaven Dr Auckland"
-36.869268,174.777416,"Sails Restaurant"," restaurant food establishment","Level 1 1 Teed Street Newmarket"
-36.847534,174.759913,"Pearl Garden Restaurant"," bar restaurant food establishment","137 Victoria St W Auckland"
-36.844434,174.770699,"Empire Tavern"," bar restaurant food establishment","102 Quay St Auckland"
-36.874761,174.741681,"Brew on Quay"," restaurant food establishment","61 Sandringham Road Kingsland"
-36.848639,174.754135,"Papa's Wholemeal Pizza Cafe"," restaurant food establishment","33 Drake Street Freemans Bay"
-36.854744,174.779765,"La Zeppa Kitchen and Bar"," restaurant food establishment","187 Parnell Rd Auckland"
-36.857276,174.747882,"BurgerFuel"," meal_takeaway restaurant food establishment","114 Ponsonby Rd Ponsonby Auckland"
-36.86817,174.764041,"BurgerFuel"," bar restaurant food establishment","61 Normanby Road Mount Eden"
-36.85639,174.742858,"Wok N Noodle Bar"," restaurant food establishment","56 Brown Street Ponsonby"
-36.847498,174.761701,"Cocoro"," restaurant food establishment","51 Hobson St Auckland"
-36.857588,174.749118,"La Porchetta Hobson Street"," restaurant food establishment","23 Ponsonby Road Auckland"
-36.853592,174.779442,"MooChowChow"," bar restaurant food establishment","144 Parnell Road Parnell"
-36.850581,174.764244,"Windsor Castle and Juice Bar"," restaurant food establishment","1 Wellesley St E Auckland"
-36.872327,174.744085,"Bangkok Restaurant & Bar"," bar restaurant food establishment","470 New North Rd Kingsland Auckland"
-36.855054,174.745935,"The Kingslander"," restaurant food establishment","168 Ponsonby Road Ponsonby Auckland"
-36.849576,174.762246,"Burger Wisconsin Ponsonby"," bar restaurant food establishment","90 Federal St Auckland"
-36.871792,174.74531,"The Grill by Sean Connolly"," restaurant food establishment","455 New North Rd Kingsland Auckland"
-36.871365,174.777854,"Handmade Burgers"," cafe restaurant food establishment","25 Nuffield Street Newmarket"
NA,NA,"Tasca Newmarket","",""
