"lat","lon","name","type","address"
52.039994,5.672007,"Restaurant Pomphuis & hapjesenzocatering"," restaurant food establishment","Klinkenbergerweg 41 Ede"
52.041481,5.669239,"V.O.F. Het Oude Politiebureau"," restaurant food establishment","Breelaan 2a Ede gld"
52.047187,5.669916,"Bernardo's IJssalon"," store food establishment","Molenstraat 118 Ede"
52.042825,5.668066,"Villa Brutus"," restaurant food establishment","Museumplein 3 Ede"
52.046416,5.670292,"Delifrance Ede"," meal_takeaway restaurant food establishment","Torenstraat 16 Ede gld"
52.046574,5.670506,"Eetcafe de Buurvrouw"," restaurant food establishment","Brouwerstraat 13b Ede gld"
52.048958,5.667385,"Restaurant Buitenzorg"," restaurant food establishment","Amsterdamseweg 19 EDE GLD"
52.042825,5.668066,"De Plantage"," restaurant food establishment","Museumplein 3 Ede"
52.045176,5.67264,"Wok Restaurant Oriental"," restaurant food establishment","Achterdoelen 15 Ede gld"
52.047241,5.67037,"Pizzeria Ristorante Sole d'Italia,Cafetaria Veenderweg,Tapasia,Grand Café de Verleiding,Grieks Restaurant Kreta,Albert Heijn,Trattoria da Aldo,Banketbakkerij Onnink,Eetkamer De Heksenketel,Grand Cafe Mr.Bojangels,Resy's,Restaurant Pomphuis & hapjesenzocatering,V.O.F. Het Oude Politiebureau,Bernardo's IJssalon,Villa Brutus,Delifrance Ede,Eetcafe de Buurvrouw,Restaurant Buitenzorg,De Plantage,Wok Restaurant Oriental,Pizzeria Ristorante Sole d'Italia"," store restaurant food establishment","Molenstraat 110 Ede"
52.042621,5.660618,"Cafetaria Veenderweg"," restaurant food establishment","Veenderweg 99-101 Ede gld"
52.041954,5.669038,"Tapasia"," restaurant food establishment","Maandereind 109 Ede"
52.045709,5.667778,"Grand Café de Verleiding"," cafe restaurant food establishment","Brouwerstraat 44 Ede"
52.042187,5.668568,"Grieks Restaurant Kreta"," restaurant food establishment","Nieuwe Stationsstraat 30 Ede gld"
52.044098,5.671753,"Albert Heijn"," grocery_or_supermarket food store establishment","Achterdoelen 41 Ede gld"
52.041344,5.668466,"Trattoria da Aldo"," restaurant food establishment","Stationsweg 6 Ede"
52.039993,5.666923,"Banketbakkerij Onnink"," bakery store food establishment","Maanderweg 21 Ede gld"
52.043251,5.668943,"Eetkamer De Heksenketel"," restaurant food establishment","Nieuwe Stationsstraat 17 Ede"
52.046069,5.669379,"Grand Cafe Mr.Bojangels"," cafe food establishment","Marktstraat 69 Ede gld"
52.048356,5.669366,"Resy's"," restaurant food establishment","Notaris Fischerstraat 31 Ede gld"
52.039994,5.672007,"Barnies Luxe"," restaurant food establishment","Klinkenbergerweg 41 Ede"
52.041481,5.669239,"Hoogvliet"," restaurant food establishment","Breelaan 2a Ede gld"
52.047187,5.669916,"Nok's Kitchen"," store food establishment","Molenstraat 118 Ede"
52.042825,5.668066,"Shoarma Pizzeria De Lantaarn"," restaurant food establishment","Museumplein 3 Ede"
52.046416,5.670292,"pizzeria venezia"," meal_takeaway restaurant food establishment","Torenstraat 16 Ede gld"
52.046574,5.670506,"American Restaurant Dixie's"," restaurant food establishment","Brouwerstraat 13b Ede gld"
52.048958,5.667385,"Japans Restaurant EDO"," restaurant food establishment","Amsterdamseweg 19 EDE GLD"
52.042825,5.668066,"Pizzeria di Mario"," restaurant food establishment","Museumplein 3 Ede"
52.045176,5.67264,"Grieks Specialiteiten Restaurant Rhodos"," restaurant food establishment","Achterdoelen 15 Ede gld"
52.047241,5.67037,"Grieks Restaurant Akropolis"," store restaurant food establishment","Molenstraat 110 Ede"
52.042621,5.660618,"Balkan Restaurant Yoegoslavie"," restaurant food establishment","Veenderweg 99-101 Ede gld"
52.041954,5.669038,"Café De Kink"," restaurant food establishment","Maandereind 109 Ede"
52.045709,5.667778,"Stadscafé Oscar V.O.F."," cafe restaurant food establishment","Brouwerstraat 44 Ede"
52.042187,5.668568,"Mixor"," restaurant food establishment","Nieuwe Stationsstraat 30 Ede gld"
52.044098,5.671753,"Anders & Co."," grocery_or_supermarket food store establishment","Achterdoelen 41 Ede gld"
52.041344,5.668466,"Boni Ede"," restaurant food establishment","Stationsweg 6 Ede"
52.039993,5.666923,"Legends Eetcafé"," bakery store food establishment","Maanderweg 21 Ede gld"
52.043251,5.668943,"Restaurant & lounge Cha House"," restaurant food establishment","Nieuwe Stationsstraat 17 Ede"
52.046069,5.669379,"China Town Afhaal- en Cateringservice"," cafe food establishment","Marktstraat 69 Ede gld"
52.048356,5.669366,"Jakarta Baru"," restaurant food establishment","Notaris Fischerstraat 31 Ede gld"
52.041963,5.66914,"Barnies Luxe"," restaurant food establishment","Maanderpoort 9 Ede gld"
52.04168,5.667279,"Hoogvliet"," grocery_or_supermarket food store establishment","De Halte 269 Ede"
52.045709,5.668453,"Nok's Kitchen"," restaurant food establishment","Brouwerstraat 63 Ede gld"
52.043501,5.668703,"Shoarma Pizzeria De Lantaarn"," restaurant food establishment","Nieuwe Stationsstraat 13B Ede"
52.042691,5.660783,"pizzeria venezia"," restaurant food establishment","Veenderweg 91 Ede"
52.041543,5.668569,"American Restaurant Dixie's"," restaurant food establishment","Stationsweg 2 Ede"
52.042476,5.668582,"Japans Restaurant EDO"," restaurant food establishment","Nieuwe Stationsstraat 20 Ede"
52.048566,5.670784,"Pizzeria di Mario"," meal_takeaway restaurant food establishment","Grotestraat 116 Ede"
52.04466,5.66785,"Grieks Specialiteiten Restaurant Rhodos"," restaurant food establishment","Telefoonweg 70 Ede"
52.043778,5.66896,"Grieks Restaurant Akropolis"," restaurant food establishment","Nieuwe Stationsstraat 9 Ede gld"
52.048507,5.670794,"Balkan Restaurant Yoegoslavie"," restaurant food establishment","Grotestraat 114 Ede gld"
52.042354,5.667652,"Café De Kink"," cafe food establishment","De Halte 81 Ede gld"
52.045514,5.672068,"Stadscafé Oscar V.O.F."," cafe restaurant food establishment","Oude Kerkplein 20 Ede gld"
52.043404,5.669416,"Mixor"," restaurant food establishment","Maandereind 14 Ede"
52.041262,5.668444,"Anders & Co."," restaurant food establishment","Stationsweg 12-14 EDE GLD"
52.046235,5.669235,"Boni Ede"," grocery_or_supermarket food store establishment","Brouwerstraat 21 Ede"
52.04792,5.670893,"Legends Eetcafé"," restaurant food establishment","Grotestraat 100 Ede gld"
52.043027,5.673661,"Restaurant & lounge Cha House"," night_club bar restaurant food establishment","Arnhemseweg 20 Ede"
52.03273,5.654493,"China Town Afhaal- en Cateringservice"," restaurant food establishment","Hakselseweg 15-A Ede gld"
52.048337,5.670529,"Jakarta Baru"," restaurant food establishment","Grotestraat 133 Ede gld"
52.041963,5.66914,"Bagels & Beans"," restaurant food establishment","Maanderpoort 9 Ede gld"
52.04168,5.667279,"Substitute"," grocery_or_supermarket food store establishment","De Halte 269 Ede"
52.045709,5.668453,"Café Premier"," restaurant food establishment","Brouwerstraat 63 Ede gld"
52.043501,5.668703,"Koffie & Koffie"," restaurant food establishment","Nieuwe Stationsstraat 13B Ede"
52.042691,5.660783,"Shi Woo"," restaurant food establishment","Veenderweg 91 Ede"
52.041543,5.668569,"Grand Café Marnix"," restaurant food establishment","Stationsweg 2 Ede"
52.042476,5.668582,"Stichting Cultureel Café Dante"," restaurant food establishment","Nieuwe Stationsstraat 20 Ede"
52.048566,5.670784,"Domino's Pizza Ede"," meal_takeaway restaurant food establishment","Grotestraat 116 Ede"
52.04466,5.66785,"Cafetaria de Tamboer"," restaurant food establishment","Telefoonweg 70 Ede"
52.043778,5.66896,"Café De Pineut"," restaurant food establishment","Nieuwe Stationsstraat 9 Ede gld"
52.048507,5.670794,"Martin ter Stege"," restaurant food establishment","Grotestraat 114 Ede gld"
52.042354,5.667652," Uw Slager"," cafe food establishment","De Halte 81 Ede gld"
52.045514,5.672068,"Flannagan's"," cafe restaurant food establishment","Oude Kerkplein 20 Ede gld"
52.043404,5.669416,"Febo Ede"," restaurant food establishment","Maandereind 14 Ede"
52.041262,5.668444,"Subway"," restaurant food establishment","Stationsweg 12-14 EDE GLD"
52.046235,5.669235,"Eetablissement Paniny"," grocery_or_supermarket food store establishment","Brouwerstraat 21 Ede"
52.04792,5.670893,"Effe Anders Ede B.V."," restaurant food establishment","Grotestraat 100 Ede gld"
52.043027,5.673661,"Cafetaria  Goofy's Corner"," night_club bar restaurant food establishment","Arnhemseweg 20 Ede"
52.03273,5.654493,"De Heidebrouwerij"," restaurant food establishment","Hakselseweg 15-A Ede gld"
52.048337,5.670529,"Café Rail Road"," restaurant food establishment","Grotestraat 133 Ede gld"
52.04493,5.671918,"Holyland"," bakery store food establishment","Achterdoelen 21 Ede"
52.04297,5.668898,"Bagels & Beans"," cafe food establishment","Nieuwe Stationsstraat 27 Ede gld"
52.043202,5.668935,"Substitute"," cafe bar food establishment","Nieuwe Stationsstraat 19 Ede gld"
52.043876,5.670693,"Café Premier"," cafe food establishment","Vendelstraat 9 Ede gld"
52.042511,5.660453,"Koffie & Koffie"," restaurant food establishment","Veenderweg 115 Ede gld"
52.045212,5.672416,"Shi Woo"," cafe food establishment","Achterdoelen 11 Ede gld"
52.046548,5.66704,"Grand Café Marnix"," cafe food establishment","Telefoonweg 45 Ede"
52.038468,5.655995,"Stichting Cultureel Café Dante"," meal_takeaway restaurant meal_delivery food establishment","Rozenplein 62 Ede"
52.041142,5.655949,"Domino's Pizza Ede"," restaurant food establishment","Soembalaan 6 Ede"
52.042931,5.668602,"Cafetaria de Tamboer"," cafe food establishment","Museumplein 1-A Ede gld"
52.04561,5.667367,"Café De Pineut"," food store establishment","Brouwerstraat 120 Ede gld"
52.047361,5.669836,"Martin ter Stege"," cafe food establishment","Notaris Fischerstraat 4 Ede gld"
52.043861,5.670024," Uw Slager"," restaurant food establishment","Grotestraat 2A Ede"
52.044155,5.670902,"Flannagan's"," restaurant meal_delivery food establishment","Vendelstraat 6 Ede"
52.046463,5.671404,"Febo Ede"," cafe restaurant food establishment","Grotestraat 60A Ede"
52.043124,5.669615,"Subway"," food store establishment","Maandereind 15 Ede gld"
52.032555,5.655773,"Eetablissement Paniny"," cafe food establishment","Verlengde Maanderweg 160 Ede gld"
52.033954,5.678848,"Effe Anders Ede B.V."," restaurant food establishment","Nieuwe Kazernelaan 2 Ede"
52.043105,5.668919,"Cafetaria  Goofy's Corner"," cafe food establishment","Nieuwe Stationsstraat 23 Ede gld"
52.044566,5.668767,"De Heidebrouwerij"," restaurant meal_delivery food establishment","Kuiperplein 39 Ede"
52.04493,5.671918,"Café Rail Road"," bakery store food establishment","Achterdoelen 21 Ede"
52.04297,5.668898,"Holyland"," cafe food establishment","Nieuwe Stationsstraat 27 Ede gld"
52.043202,5.668935,""," cafe bar food establishment","Nieuwe Stationsstraat 19 Ede gld"
52.043876,5.670693,""," cafe food establishment","Vendelstraat 9 Ede gld"
52.042511,5.660453,""," restaurant food establishment","Veenderweg 115 Ede gld"
52.045212,5.672416,""," cafe food establishment","Achterdoelen 11 Ede gld"
52.046548,5.66704,""," cafe food establishment","Telefoonweg 45 Ede"
52.038468,5.655995,""," meal_takeaway restaurant meal_delivery food establishment","Rozenplein 62 Ede"
52.041142,5.655949,""," restaurant food establishment","Soembalaan 6 Ede"
52.042931,5.668602,""," cafe food establishment","Museumplein 1-A Ede gld"
52.04561,5.667367,""," food store establishment","Brouwerstraat 120 Ede gld"
52.047361,5.669836,""," cafe food establishment","Notaris Fischerstraat 4 Ede gld"
52.043861,5.670024,""," restaurant food establishment","Grotestraat 2A Ede"
52.044155,5.670902,""," restaurant meal_delivery food establishment","Vendelstraat 6 Ede"
52.046463,5.671404,""," cafe restaurant food establishment","Grotestraat 60A Ede"
52.043124,5.669615,""," food store establishment","Maandereind 15 Ede gld"
52.032555,5.655773,""," cafe food establishment","Verlengde Maanderweg 160 Ede gld"
52.033954,5.678848,""," restaurant food establishment","Nieuwe Kazernelaan 2 Ede"
52.043105,5.668919,""," cafe food establishment","Nieuwe Stationsstraat 23 Ede gld"
52.044566,5.668767,""," restaurant meal_delivery food establishment","Kuiperplein 39 Ede"
